[Satellite]
VERSION=1.1
NAME=BHUTAN-1
NICKNAME=BHUTAN-1
TLE1=1 43591U 98067PF  19317.04409564  .00023775  00000-0  23295-3 0  9993
TLE2=2 43591  51.6359 317.6302 0005820   6.2407 353.8660 15.65957442 71736
STATUS=0
